NORAD_CAT_ID,OBJECT_NAME,OBJECT_TYPE,EPOCH,MEAN_MOTION,ECCENTRICITY,INCLINATION,RA_OF_ASC_NODE,ARG_OF_PERICENTER,MEAN_ANOMALY,BSTAR,MEAN_MOTION_DOT,MEAN_MOTION_DDOT,TLE_LINE0,TLE_LINE1,TLE_LINE2,SEMIMAJOR_AXIS,PERIOD,APOGEE,PERIGEE,DECAYED
55287.0,STARLINK-5341,PAYLOAD,2023-07-01 18:35:57,15.6992322,0.0003877,70.0008,328.0564,278.2782,81.7974,2.7735e-05,3.123e-05,0.0,0 STARLINK-5341,1 55287U 23010U   23182.77497401  .00003123  00000-0  27735-4 0  9995,2 55287  70.0008 328.0564 0003877 278.2782  81.7974 15.69923220 26174,6737.254,91.724,361.731,356.507,0.0
55287.0,STARLINK-5341,PAYLOAD,2023-07-02 22:07:29,15.6992981,0.000382,70.0009,324.8314,279.4923,80.5841,5.0121e-05,5.82e-05,0.0,0 STARLINK-5341,1 55287U 23010U   23183.92187350  .00005820  00000-0  50121-4 0  9993,2 55287  70.0009 324.8314 0003820 279.4923  80.5841 15.69929810 26351,6737.235,91.724,361.673,356.526,0.0
55287.0,STARLINK-5341,PAYLOAD,2023-07-03 19:32:01,15.69926402,0.0003954,70.0013,322.3235,283.4689,76.6066,4.9934e-05,5.797e-05,0.0,0 STARLINK-5341,1 55287U 23010U   23184.81390930  .00005797  00000-0  49934-4 0  9995,2 55287  70.0013 322.3235 0003954 283.4689  76.6066 15.69926402 26497,6737.245,91.724,361.773,356.446,0.0
55287.0,STARLINK-5341,PAYLOAD,2023-07-04 18:28:18,15.69929061,0.0003944,70.0012,319.6363,277.4359,82.6388,4.0369e-05,4.645e-05,0.0,0 STARLINK-5341,1 55287U 23010U   23185.76965870  .00004645  00000-0  40369-4 0  9995,2 55287  70.0012 319.6363 0003944 277.4359  82.6388 15.69929061 26648,6737.237,91.724,361.759,356.445,0.0
55287.0,STARLINK-5341,PAYLOAD,2023-07-05 03:38:49,15.69921278,0.000385,70.001,318.5614,276.6311,83.4446,6.9463e-06,6.22e-06,0.0,0 STARLINK-5341,1 55287U 23010U   23186.15196137  .00000622  00000-0  69463-5 0  9999,2 55287  70.0010 318.5614 0003850 276.6311  83.4446 15.69921278 26701,6737.259,91.724,361.718,356.53,0.0
55287.0,STARLINK-5341,PAYLOAD,2023-07-05 18:56:20,15.69931069,0.0003799,70.0003,316.7695,275.9993,84.077,3.0413e-05,3.447e-05,0.0,0 STARLINK-5341,1 55287U 23010U   23186.78912599  .00003447  00000-0  30413-4 0  9996,2 55287  70.0003 316.7695 0003799 275.9993  84.0770 15.69931069 26809,6737.231,91.724,361.656,356.537,0.0
55287.0,STARLINK-5341,PAYLOAD,2023-07-06 08:42:06,15.69924989,0.0003534,70.0008,315.1591,265.3823,94.6969,1.068e-05,1.072e-05,0.0,0 STARLINK-5341,1 55287U 23010U   23187.36257899  .00001072  00000-0  10680-4 0  9992,2 55287  70.0008 315.1591 0003534 265.3823  94.6969 15.69924989 26893,6737.249,91.724,361.495,356.733,0.0
55287.0,STARLINK-5341,PAYLOAD,2023-07-07 01:31:32,15.69745912,0.0002842,70.0003,313.1872,289.6903,70.3985,-0.00030036,-0.00035906,0.0,0 STARLINK-5341,1 55287U 23010U   23188.06357286 -.00035906  00000-0 -30036-3 0  9992,2 55287  70.0003 313.1872 0002842 289.6903  70.3985 15.69745912 27007,6737.761,91.735,361.541,357.711,0.0
55287.0,STARLINK-5341,PAYLOAD,2023-07-07 10:42:27,15.69157831,0.0002663,70.0016,312.1171,235.4491,124.6453,-0.001703,-0.00194058,0.0,0 STARLINK-5341,1 55287U 23010U   23188.44615570 -.00194058  00000-0 -17030-2 0  9999,2 55287  70.0016 312.1171 0002663 235.4491 124.6453 15.69157831 27060,6739.444,91.769,363.104,359.515,0.0
55287.0,STARLINK-5341,PAYLOAD,2023-07-07 22:00:00,15.67710887,0.0003505,70.0002,310.7952,276.5422,219.5612,-0.0097368,-0.00969565,0.0,0 STARLINK-5341,1 55287U 23010U   23188.91667824 -.00969565  00000-0 -97368-2 0  9995,2 55287  70.0002 310.7952 0003505 276.5422 219.5612 15.67710887 27135,6743.591,91.854,367.819,363.092,0.0
55287.0,STARLINK-5341,PAYLOAD,2023-07-08 06:00:00,15.67027097,0.0003555,70.0002,309.8617,266.1824,310.1736,-0.0092027,-0.00897834,0.0,0 STARLINK-5341,1 55287U 23010U   23189.25001157 -.00897834  00000-0 -92027-2 0  9990,2 55287  70.0002 309.8617 0003555 266.1824 310.1736 15.67027097 27182,6745.552,91.894,369.815,365.019,0.0
55287.0,STARLINK-5341,PAYLOAD,2023-07-08 22:00:00,15.65751168,0.0003723,70.0,307.9971,273.7331,100.7695,-0.010436,-0.00960732,0.0,0 STARLINK-5341,1 55287U 23010U   23189.91667824 -.00960732  00000-0 -10436-1 0  9993,2 55287  70.0000 307.9971 0003723 273.7331 100.7695 15.65751168 27296,6749.216,91.969,373.594,368.569,0.0
55287.0,STARLINK-5341,PAYLOAD,2023-07-09 14:00:01,15.64385793,0.0003538,69.9997,306.1363,273.0218,256.5258,-0.0098614,-0.0086787,0.0,0 STARLINK-5341,1 55287U 23010U   23190.58334491 -.00867870  00000-0 -98614-2 0  9993,2 55287  69.9997 306.1363 0003538 273.0218 256.5258 15.64385793 27397,6753.143,92.049,377.397,372.619,0.0
55287.0,STARLINK-5341,PAYLOAD,2023-07-10 06:00:00,15.6311676,0.0003535,69.9997,304.2789,268.0403,53.3814,-0.010841,-0.0090398,0.0,0 STARLINK-5341,1 55287U 23010U   23191.25001157 -.00903980  00000-0 -10841-1 0  9996,2 55287  69.9997 304.2789 0003535 268.0403  53.3814 15.63116760 27504,6756.797,92.124,381.051,376.274,0.0
55287.0,STARLINK-5341,PAYLOAD,2023-07-10 22:00:00,15.61834943,0.0003307,69.9995,302.4251,276.5084,193.6755,-0.012195,-0.00961216,0.0,0 STARLINK-5341,1 55287U 23010U   23191.91667824 -.00961216  00000-0 -12195-1 0  9998,2 55287  69.9995 302.4251 0003307 276.5084 193.6755 15.61834943 27603,6760.494,92.199,384.594,380.123,0.0
55287.0,STARLINK-5341,PAYLOAD,2023-07-11 06:00:00,15.6117072,0.0003208,69.9995,301.4998,268.7637,274.6254,-0.011936,-0.00920744,0.0,0 STARLINK-5341,1 55287U 23010U   23192.25001157 -.00920744  00000-0 -11936-1 0  9990,2 55287  69.9995 301.4998 0003208 268.7637 274.6254 15.61170720 27652,6762.411,92.238,386.446,382.107,0.0
55287.0,STARLINK-5341,PAYLOAD,2023-07-12 06:00:00,15.59213827,0.0003415,69.9997,298.7288,267.5078,130.8148,-0.012903,-0.00923103,0.0,0 STARLINK-5341,1 55287U 23010U   23193.25001157 -.00923103  00000-0 -12903-1 0  9998,2 55287  69.9997 298.7288 0003415 267.5078 130.8148 15.59213827 27816,6768.068,92.354,392.244,387.622,0.0
55287.0,STARLINK-5341,PAYLOAD,2023-07-13 20:00:01,15.56128936,0.0003369,69.9996,294.3579,273.2754,0.9569,-0.015089,-0.00957523,0.0,0 STARLINK-5341,1 55287U 23010U   23194.83334491 -.00957523  00000-0 -15089-1 0  9994,2 55287  69.9996 294.3579 0003369 273.2754   0.9569 15.56128936 28068,6777.01,92.537,401.158,396.592,0.0
55287.0,STARLINK-5341,PAYLOAD,2023-07-14 00:00:00,15.55750904,0.0003326,69.9998,293.899,272.6824,214.8477,-0.013898,-0.00877176,0.0,0 STARLINK-5341,1 55287U 23010U   23195.00001157 -.00877176  00000-0 -13898-1 0  9995,2 55287  69.9998 293.8990 0003326 272.6824 214.8477 15.55750904 28086,6778.108,92.56,402.227,397.718,0.0
55287.0,STARLINK-5341,PAYLOAD,2023-07-14 14:00:01,15.54608401,0.0003433,69.9999,292.2951,274.7697,237.6992,-0.014421,-0.00873017,0.0,0 STARLINK-5341,1 55287U 23010U   23195.58334491 -.00873017  00000-0 -14421-1 0  9991,2 55287  69.9999 292.2951 0003433 274.7697 237.6992 15.54608401 28175,6781.428,92.628,405.621,400.965,0.0
55287.0,STARLINK-5341,PAYLOAD,2023-07-15 06:00:02,15.53352599,0.0003545,70.0,290.4647,265.2531,15.6819,-0.01625,-0.00933486,0.0,0 STARLINK-5341,1 55287U 23010U   23196.25002315 -.00933486  00000-0 -16250-1 0  9992,2 55287  70.0000 290.4647 0003545 265.2531  15.6819 15.53352599 28286,6785.083,92.703,409.353,404.542,0.0
55287.0,STARLINK-5341,PAYLOAD,2023-07-16 06:00:00,15.51260981,0.0003344,70.0002,287.7261,264.9989,202.6547,-0.00077334,-0.0004539,0.0,0 STARLINK-5341,1 55287U 23010U   23197.25001157 -.00045390  00000-0 -77334-3 0  9996,2 55287  70.0002 287.7261 0003344 264.9989 202.6547 15.51260981 28433,6791.18,92.828,415.316,410.774,0.0
55287.0,STARLINK-5341,PAYLOAD,2023-07-16 22:00:00,15.51247735,0.0003299,70.0001,285.9036,270.9499,318.5468,-0.0011895,-0.00069484,0.0,0 STARLINK-5341,1 55287U 23010U   23197.91667824 -.00069484  00000-0 -11895-2 0  9997,2 55287  70.0001 285.9036 0003299 270.9499 318.5468 15.51247735 28536,6791.219,92.828,415.324,410.844,0.0
55287.0,STARLINK-5341,PAYLOAD,2023-07-17 02:00:01,15.51169662,0.0003366,70.0002,285.4481,266.2473,173.726,0.0015066,0.00089161,0.0,0 STARLINK-5341,1 55287U 23010U   23198.08334491  .00089161  00000-0  15066-2 0  9993,2 55287  70.0002 285.4481 0003366 266.2473 173.7260 15.51169662 28567,6791.447,92.833,415.598,411.026,0.0
55287.0,STARLINK-5341,PAYLOAD,2023-07-17 14:00:01,15.5122454,0.000338,70.0003,284.0813,271.4824,79.9109,3.7803e-05,2.056e-05,0.0,0 STARLINK-5341,1 55287U 23010U   23198.58335648  .00002056  00000-0  37803-4 0  9996,2 55287  70.0003 284.0813 0003380 271.4824  79.9109 15.51224540 28641,6791.287,92.83,415.447,410.856,0.0
55287.0,STARLINK-5341,PAYLOAD,2023-07-18 22:00:00,15.51223213,0.0003481,69.9998,280.4358,268.8935,326.0929,-0.00044638,-0.00026298,0.0,0 STARLINK-5341,1 55287U 23010U   23199.91667824 -.00026298  00000-0 -44638-3 0  9997,2 55287  69.9998 280.4358 0003481 268.8935 326.0929 15.51223213 28844,6791.291,92.83,415.52,410.792,0.0
55287.0,STARLINK-5341,PAYLOAD,2023-07-19 09:22:17,15.51220902,0.0003144,69.9984,279.1417,259.7384,100.3447,2.4422e-05,1.27e-05,0.0,0 STARLINK-5341,1 55287U 23010U   23200.39048190  .00001270  00000-0  24422-4 0  9992,2 55287  69.9984 279.1417 0003144 259.7384 100.3447 15.51220902 28922,6791.297,92.83,415.297,411.027,0.0
55287.0,STARLINK-5341,PAYLOAD,2023-07-19 17:06:34,15.51230415,0.0003234,69.998,278.2598,266.456,93.6256,3.3706e-05,1.816e-05,0.0,0 STARLINK-5341,1 55287U 23010U   23200.71289881  .00001816  00000-0  33706-4 0  9993,2 55287  69.9980 278.2598 0003234 266.4560  93.6256 15.51230415 28976,6791.27,92.83,415.331,410.938,0.0
55287.0,STARLINK-5341,PAYLOAD,2023-07-20 22:31:12,15.50959321,0.0004369,69.9977,274.9094,256.1308,103.9392,-0.00060167,-0.00035027,0.0,0 STARLINK-5341,1 55287U 23010U   23201.93834421 -.00035027  00000-0 -60167-3 0  9997,2 55287  69.9977 274.9094 0004369 256.1308 103.9392 15.50959321 29163,6792.061,92.846,416.893,410.958,0.0
55287.0,STARLINK-5341,PAYLOAD,2023-07-21 15:33:40,15.50380001,0.0004267,69.9991,272.9758,253.8974,106.1742,-0.0016893,-0.00095331,0.0,0 STARLINK-5341,1 55287U 23010U   23202.64838340 -.00095331  00000-0 -16893-2 0  9990,2 55287  69.9991 272.9758 0004267 253.8974 106.1742 15.50380001 29273,6793.753,92.88,418.517,412.719,0.0
